{
    "satellites": [
        {
            "name": "starlink343",
            "title": "Starlink-343 (G6-98)",
            "tle": [
                "1 67473C 26008AE  26026.87409722 -.01832300  00000+0 -65205-2 0   267",
                "2 67473  43.0012  87.1041 0001128 266.8028  18.2733 15.89764057    11"
            ],
            "stdMag": 5,
            "noradId": "67473",
            "tleUrl": "http://celestrak.org/NORAD/elements/supplemental/sup-gp.php?FILE=starlink&FORMAT=tle",
            "launchDate": "2026-01-14T18:08:20.000Z",
            "active": true,
            "batch": [
                {
                    "noradId": "67473",
                    "tle": [
                        "1 67473C 26008AE  26026.87409722 -.01832300  00000+0 -65205-2 0   267",
                        "2 67473  43.0012  87.1041 0001128 266.8028  18.2733 15.89764057    11"
                    ]
                },
                {
                    "noradId": "67472",
                    "tle": [
                        "1 67472C 26008AD  26026.88243056 -.01724200  00000+0 -60331-2 0   267",
                        "2 67472  43.0011  87.0907 0001271 270.4443  47.1635 15.89989973    18"
                    ]
                },
                {
                    "noradId": "67471",
                    "tle": [
                        "1 67471C 26008AC  26026.88104167 -.01413500  00000+0 -48251-2 0   260",
                        "2 67471  43.0015  87.1700 0001462 267.0076  15.0553 15.90165114    17"
                    ]
                },
                {
                    "noradId": "67470",
                    "tle": [
                        "1 67470C 26008AB  26026.88173611 -.01631700  00000+0 -56438-2 0   269",
                        "2 67470  43.0013  87.1218 0001377 268.1044  35.1687 15.90126099    10"
                    ]
                },
                {
                    "noradId": "67468",
                    "tle": [
                        "1 67468C 26008Z   26026.88034722 -.01333000  00000+0 -45303-2 0   266",
                        "2 67468  43.0018  87.1966 0001493 268.0088   1.4724 15.90172293    13"
                    ]
                },
                {
                    "noradId": "67469",
                    "tle": [
                        "1 67469C 26008AA  26026.88173611 -.01542600  00000+0 -53026-2 0   267",
                        "2 67469  43.0016  87.1413 0001397 270.8523  24.7821 15.90159163    14"
                    ]
                },
                {
                    "noradId": "67467",
                    "tle": [
                        "1 67467C 26008Y   26026.87479167 -.01663200  00000+0 -64464-2 0   267",
                        "2 67467  43.0016  87.3617 0001016 269.8841 276.1222 15.87858147    11"
                    ]
                },
                {
                    "noradId": "67466",
                    "tle": [
                        "1 67466C 26008X   26026.87340278 -.01649500  00000+0 -63856-2 0   267",
                        "2 67466  43.0016  87.3776 0001000 269.7301 265.4445 15.87870146    10"
                    ]
                },
                {
                    "noradId": "67465",
                    "tle": [
                        "1 67465C 26008W   26026.88243056 -.01631200  00000+0 -63134-2 0   260",
                        "2 67465  43.0018  87.3299 0001153 266.6461 317.0197 15.87855206    11"
                    ]
                },
                {
                    "noradId": "67464",
                    "tle": [
                        "1 67464C 26008V   26026.87340278 -.01621300  00000+0 -62602-2 0   261",
                        "2 67464  43.0019  87.3933 0000933 275.4182 253.7237 15.87894004    19"
                    ]
                },
                {
                    "noradId": "67463",
                    "tle": [
                        "1 67463C 26008U   26026.87409722 -.01602500  00000+0 -61761-2 0   266",
                        "2 67463  43.0019  87.3977 0001000 272.4302 257.2738 15.87912593    12"
                    ]
                },
                {
                    "noradId": "67462",
                    "tle": [
                        "1 67462C 26008T   26026.88243056 -.01583000  00000+0 -60979-2 0   265",
                        "2 67462  43.0016  87.3542 0001156 270.6453 303.4074 15.87902237    16"
                    ]
                },
                {
                    "noradId": "67461",
                    "tle": [
                        "1 67461C 26008S   26026.88243056 -.01566300  00000+0 -60252-2 0   262",
                        "2 67461  43.0016  87.3625 0001000 272.2551 298.5428 15.87914086    14"
                    ]
                },
                {
                    "noradId": "67460",
                    "tle": [
                        "1 67460C 26008R   26026.88173611 -.01552900  00000+0 -59681-2 0   265",
                        "2 67460  43.0015  87.3741 0001062 271.9590 291.9182 15.87919849    14"
                    ]
                },
                {
                    "noradId": "67459",
                    "tle": [
                        "1 67459C 26008Q   26026.87270833 -.01534600  00000+0 -58821-2 0   268",
                        "2 67459  43.0013  87.4380 0001090 275.8946 233.0887 15.87954372    18"
                    ]
                },
                {
                    "noradId": "67458",
                    "tle": [
                        "1 67458C 26008P   26026.88104167 -.01509100  00000+0 -57814-2 0   262",
                        "2 67458  43.0014  87.3958 0000944 272.8181 280.2367 15.87939736    17"
                    ]
                },
                {
                    "noradId": "67457",
                    "tle": [
                        "1 67457C 26008N   26026.88034722 -.01471400  00000+0 -56316-2 0   267",
                        "2 67457  43.0013  87.4140 0001095 271.8988 271.5870 15.87920427    10"
                    ]
                },
                {
                    "noradId": "67455",
                    "tle": [
                        "1 67455C 26008L   26026.88034722 -.01489600  00000+0 -57022-2 0   261",
                        "2 67455  43.0015  87.4077 0001177 270.1706 275.9764 15.87935730    13"
                    ]
                },
                {
                    "noradId": "67456",
                    "tle": [
                        "1 67456C 26008M   26026.88104167 -.01449700  00000+0 -55473-2 0   268",
                        "2 67456  43.0014  87.4171 0000966 272.6232 272.0301 15.87902943    19"
                    ]
                },
                {
                    "noradId": "67454",
                    "tle": [
                        "1 67454C 26008K   26026.88034722 -.01440300  00000+0 -55156-2 0   260",
                        "2 67454  43.0011  87.4257 0001065 272.3699 266.3531 15.87877406    10"
                    ]
                },
                {
                    "noradId": "67453",
                    "tle": [
                        "1 67453C 26008J   26026.87340278 -.01773000  00000+0 -62415-2 0   266",
                        "2 67453  42.9998  87.1271 0001125 268.2534   4.5728 15.89918880    17"
                    ]
                },
                {
                    "noradId": "67452",
                    "tle": [
                        "1 67452C 26008H   26026.88034722 -.01404500  00000+0 -53714-2 0   268",
                        "2 67452  43.0012  87.4350 0001081 275.5994 259.5581 15.87868039    15"
                    ]
                },
                {
                    "noradId": "67451",
                    "tle": [
                        "1 67451C 26008G   26026.87965278 -.01377600  00000+0 -52663-2 0   267",
                        "2 67451  43.0012  87.4471 0001050 276.1210 252.1083 15.87849672    10"
                    ]
                },
                {
                    "noradId": "67450",
                    "tle": [
                        "1 67450C 26008F   26026.87895833 -.01340900  00000+0 -51209-2 0   263",
                        "2 67450  43.0010  87.4600 0001111 275.5952 245.1874 15.87832963    10"
                    ]
                },
                {
                    "noradId": "67449",
                    "tle": [
                        "1 67449C 26008E   26026.87965278 -.01308400  00000+0 -49940-2 0   260",
                        "2 67449  43.0013  87.4643 0001084 273.5542 247.8407 15.87811605    11"
                    ]
                },
                {
                    "noradId": "67448",
                    "tle": [
                        "1 67448C 26008D   26026.87895833 -.01285500  00000+0 -49056-2 0   261",
                        "2 67448  43.0014  87.4759 0001138 278.1296 236.3763 15.87791595    19"
                    ]
                },
                {
                    "noradId": "67447",
                    "tle": [
                        "1 67447C 26008C   26026.87895833 -.01266600  00000+0 -48350-2 0   266",
                        "2 67447  43.0013  87.4830 0001131 276.9931 234.8152 15.87767526    14"
                    ]
                },
                {
                    "noradId": "67446",
                    "tle": [
                        "1 67446C 26008B   26026.87965278 -.01244500  00000+0 -47506-2 0   263",
                        "2 67446  43.0012  87.4859 0001168 275.2441 237.5568 15.87743929    13"
                    ]
                },
                {
                    "noradId": "67445",
                    "tle": [
                        "1 67445C 26008A   26026.87826389 -.01231100  00000+0 -47004-2 0   266",
                        "2 67445  43.0012  87.5015 0001132 276.9966 225.0853 15.87727947    19"
                    ]
                }
            ]
        }
    ],
    "config": {}
}